OMNI-L1                 
1 52157U 22033A   26159.13597632  .00002374  00000+0  30061-3 0  9997
2 52157  97.8390 238.4893 0004142 327.1549  32.9407 14.82717603226113
ENMAP                   
1 52159U 22033C   26159.14297918  .00000825  00000+0  13018-3 0  9996
2 52159  97.9786 241.5209 0001418  83.4902 276.6468 14.74982018225320
ARCSAT-1                
1 52161U 22033E   26158.91450911  .00013517  00000+0  21513-3 0  9998
2 52161  97.2745 251.0513 0004024 215.5333 144.5653 15.53395557234263
GLOBAL-18               
1 52196U 22034B   26158.68783573  .00024471  00000+0  50294-3 0  9993
2 52196  52.9826 302.0267 0003300 226.9820 133.0909 15.45867840235498
GAOFEN-3 03             
1 52200U 22035A   26159.21052561 -.00000093  00000+0 -14946-4 0  9997
2 52200  98.4066 167.9213 0001093  96.4445 263.6869 14.42213582219552
DAQI-1                  
1 52257U 22039A   26159.15312285  .00000434  00000+0  10496-3 0  9990
2 52257  98.1483  98.1920 0002471 299.2095  60.8856 14.57672921220624
BRO-6                   
1 52422U 22047AE  26159.16555586  .00037527  00000+0  67029-3 0  9994
2 52422  97.3393 250.0521 0005671 107.3671 252.8201 15.49933816229754
JILIN-1 GAOFEN 3D27     
1 52444U 22048B   26159.12938859  .00119856  00000+0  85977-3 0  9991
2 52444  97.5699 272.2594 0002096  92.6071 267.5433 15.73306591228056
JILIN-1 GAOFEN 3D28     
1 52445U 22048C   26159.14525484  .00114012  00000+0  72839-3 0  9992
2 52445  97.5634 272.3924 0001666 145.9084 214.2288 15.76018473228107
VIGORIDE-3              
1 52760U 22057AE  26158.97839117  .00006279  00000+0  23829-3 0  9993
2 52760  97.6596 298.7108 0009080 149.1964 210.9809 15.27184419223750
ION SCV-006             
1 52761U 22057AF  26159.09873454  .00013652  00000+0  28903-3 0  9991
2 52761  97.6093 307.2875 0018182 144.3176 215.9291 15.45065954224714
SHERPA-AC1              
1 52763U 22057AH  26159.14306782  .00006757  00000+0  19419-3 0  9994
2 52763  97.6677 307.9944 0008844 120.6877 239.5239 15.36137294224314
OMNI-L2                 
1 52771U 22057AR  26159.13876449  .00001484  00000+0  19602-3 0  9990
2 52771  97.4718 222.1051 0006619   8.4929 351.6396 14.81347322219052
STEP CUBE LAB-II        
1 52897U 22065D   26159.17821481  .00000920  00000+0  18757-3 0  9992
2 52897  98.2222 303.1084 0009789  57.9302 302.2849 14.63289760210182
RANDEV                  
1 52898U 22065E   26159.18167146  .00000941  00000+0  19012-3 0  9993
2 52898  98.2208 303.4594 0009109  58.5831 301.6260 14.63676471209936
SNUGLITE-II             
1 52899U 22065F   26159.07970984  .00001114  00000+0  22015-3 0  9994
2 52899  98.2192 303.9272 0008505  58.7360 301.4675 14.64331712209660
MIMAN                   
1 52900U 22065G   26159.15010957  .00000605  00000+0  13062-3 0  9997
2 52900  98.2250 301.6787 0008692  60.1242 300.0822 14.61834509209126
STARLINK-4362           
1 53043U 22077A   26159.09437416  .00000032  00000+0  61962-5 0  9993
2 53043  97.3869 338.4469 0001889  81.6987 278.4454 15.05651919214510
LARES-2                 
1 53105U 22080A   26158.30850878 -.00000008  00000+0  00000+0 0  9994
2 53105  70.1642 308.7172 0005412 333.4127  26.6130  6.38965096 91032
GREENCUBE (IO-117)      
1 53109U 22080E   26152.46502029 -.00000003  00000+0  00000+0 0  9996
2 53109  70.1435 303.7143 0008869 293.3663  66.6064  6.42583280 91055
STARLINK-4410           
1 53204U 22084R   26159.11596929  .00020748  00000+0  78196-3 0  9999
2 53204  97.6045 220.0143 0001160  55.3421 304.7927 15.27104064213623
COSMOS 2558             
1 53323U 22089A   26159.05660352  .00105731  00000+0  75942-3 0  9993
2 53323  97.2248 262.7618 0000736 185.1064 175.0193 15.73322119216394
TECMS                   
1 53346U 22090A   26159.21397553  .00004332  00000+0  19641-3 0  9997
2 53346  97.3138 227.5767 0002499 208.1623 151.9478 15.21347166213441
DONGPO 02               
1 53452U 22098J   26159.21228233  .00109907  00000+0  80414-3 0  9991
2 53452  97.5509 289.6362 0001284 309.8142  50.3008 15.72871701213386
DONGPO 01               
1 53453U 22098K   26159.19097736  .00095198  00000+0  75875-3 0  9992
2 53453  97.5571 290.1619 0001238 238.3751 121.7391 15.70877051213345
STARLINK-4400           
1 53468U 22099D   26159.07362578 -.00002358  00000+0 -15952-3 0  9993
2 53468  97.3877 278.5101 0001308 165.1576 194.9690 15.05642819209578
STARLINK-4621           
1 53676U 22105AE  26159.14284545  .00000045  00000+0  70938-5 0  9993
2 53676  97.3910  38.5882 0002057  81.4973 278.6488 15.05660101206846
SHERPA-LTC2             
1 53754U 22107BG  26159.00565264  .00007675  00000+0  38660-3 0  9997
2 53754  53.2350 259.1965 0394871 200.3073 158.1814 14.69596212201194
CENTISPACE-1 S3         
1 53757U 22108A   26159.11042730  .00000533  00000+0  14530-3 0  9997
2 53757  53.5326  92.7914 0008799 329.2907  30.7553 14.61241504200205
CENTISPACE-1 S4         
1 53758U 22108B   26159.09893941  .00000704  00000+0  17727-3 0  9994
2 53758  53.5302  90.3999 0008073 316.4226  43.6111 14.61919504200232
