OBJECT_NAME,OBJECT_ID,EPOCH,MEAN_MOTION,ECCENTRICITY,INCLINATION,RA_OF_ASC_NODE,ARG_OF_PERICENTER,MEAN_ANOMALY,EPHEMERIS_TYPE,CLASSIFICATION_TYPE,NORAD_CAT_ID,ELEMENT_SET_NO,REV_AT_EPOCH,BSTAR,MEAN_MOTION_DOT,MEAN_MOTION_DDOT
OMNI-L1,2022-033A,2026-06-08T03:15:48.354048,14.82717603,.0004142,97.8390,238.4893,327.1549,32.9407,0,U,52157,999,22611,.30061E-3,.2374E-4,0
ENMAP,2022-033C,2026-06-08T03:25:53.401152,14.74982018,.0001418,97.9786,241.5209,83.4902,276.6468,0,U,52159,999,22532,.13018E-3,.825E-5,0
ARCSAT-1,2022-033E,2026-06-07T21:56:53.587104,15.53395557,.0004024,97.2745,251.0513,215.5333,144.5653,0,U,52161,999,23426,.21513E-3,.13517E-3,0
GLOBAL-18,2022-034B,2026-06-07T16:30:29.007072,15.45867840,.00033,52.9826,302.0267,226.9820,133.0909,0,U,52196,999,23549,.50294E-3,.24471E-3,0
GAOFEN-3 03,2022-035A,2026-06-08T05:03:09.412704,14.42213582,.0001093,98.4066,167.9213,96.4445,263.6869,0,U,52200,999,21955,-.14946E-4,-.93E-6,0
DAQI-1,2022-039A,2026-06-08T03:40:29.814240,14.57672921,.0002471,98.1483,98.1920,299.2095,60.8856,0,U,52257,999,22062,.10496E-3,.434E-5,0
BRO-6,2022-047AE,2026-06-08T03:58:24.026304,15.49933816,.0005671,97.3393,250.0521,107.3671,252.8201,0,U,52422,999,22975,.67029E-3,.37527E-3,0
JILIN-1 GAOFEN 3D27,2022-048B,2026-06-08T03:06:19.174176,15.73306591,.0002096,97.5699,272.2594,92.6071,267.5433,0,U,52444,999,22805,.85977E-3,.119856E-2,0
JILIN-1 GAOFEN 3D28,2022-048C,2026-06-08T03:29:10.018176,15.76018473,.0001666,97.5634,272.3924,145.9084,214.2288,0,U,52445,999,22810,.72839E-3,.114012E-2,0
VIGORIDE-3,2022-057AE,2026-06-07T23:28:52.997088,15.27184419,.000908,97.6596,298.7108,149.1964,210.9809,0,U,52760,999,22375,.23829E-3,.6279E-4,0
ION SCV-006,2022-057AF,2026-06-08T02:22:10.664256,15.45065954,.0018182,97.6093,307.2875,144.3176,215.9291,0,U,52761,999,22471,.28903E-3,.13652E-3,0
SHERPA-AC1,2022-057AH,2026-06-08T03:26:01.059648,15.36137294,.0008844,97.6677,307.9944,120.6877,239.5239,0,U,52763,999,22431,.19419E-3,.6757E-4,0
OMNI-L2,2022-057AR,2026-06-08T03:19:49.251936,14.81347322,.0006619,97.4718,222.1051,8.4929,351.6396,0,U,52771,999,21905,.19602E-3,.1484E-4,0
STEP CUBE LAB-II,2022-065D,2026-06-08T04:16:37.759584,14.63289760,.0009789,98.2222,303.1084,57.9302,302.2849,0,U,52897,999,21018,.18757E-3,.92E-5,0
RANDEV,2022-065E,2026-06-08T04:21:36.414144,14.63676471,.0009109,98.2208,303.4594,58.5831,301.6260,0,U,52898,999,20993,.19012E-3,.941E-5,0
SNUGLITE-II,2022-065F,2026-06-08T01:54:46.930176,14.64331712,.0008505,98.2192,303.9272,58.7360,301.4675,0,U,52899,999,20966,.22015E-3,.1114E-4,0
MIMAN,2022-065G,2026-06-08T03:36:09.466848,14.61834509,.0008692,98.2250,301.6787,60.1242,300.0822,0,U,52900,999,20912,.13062E-3,.605E-5,0
STARLINK-4362,2022-077A,2026-06-08T02:15:53.927424,15.05651919,.0001889,97.3869,338.4469,81.6987,278.4454,0,U,53043,999,21451,.61962E-5,.32E-6,0
LARES-2,2022-080A,2026-06-07T07:24:15.158592,6.38965096,.0005412,70.1642,308.7172,333.4127,26.6130,0,U,53105,999,9103,0,-.8E-7,0
GREENCUBE (IO-117),2022-080E,2026-06-01T11:09:37.753056,6.42583280,.00088692,70.1435,303.7143,293.3663,66.6064,0,U,53109,999,9105,0,-.3E-7,0
STARLINK-4410,2022-084R,2026-06-08T02:46:59.746656,15.27104064,.000116,97.6045,220.0143,55.3421,304.7927,0,U,53204,999,21362,.78196E-3,.20748E-3,0
COSMOS 2558,2022-089A,2026-06-08T01:21:30.544128,15.73322119,.0000736,97.2248,262.7618,185.1064,175.0193,0,U,53323,999,21639,.75942E-3,.105731E-2,0
TECMS,2022-090A,2026-06-08T05:08:07.485792,15.21347166,.0002499,97.3138,227.5767,208.1623,151.9478,0,U,53346,999,21344,.19641E-3,.4332E-4,0
DONGPO 02,2022-098J,2026-06-08T05:05:41.193312,15.72871701,.0001284,97.5509,289.6362,309.8142,50.3008,0,U,53452,999,21338,.80414E-3,.109907E-2,0
DONGPO 01,2022-098K,2026-06-08T04:35:00.443904,15.70877051,.0001238,97.5571,290.1619,238.3751,121.7391,0,U,53453,999,21334,.75875E-3,.95198E-3,0
STARLINK-4400,2022-099D,2026-06-08T01:46:01.267392,15.05642819,.0001308,97.3877,278.5101,165.1576,194.9690,0,U,53468,999,20957,-.15952E-3,-.2358E-4,0
STARLINK-4621,2022-105AE,2026-06-08T03:25:41.846880,15.05660101,.0002057,97.3910,38.5882,81.4973,278.6488,0,U,53676,999,20684,.70938E-5,.45E-6,0
SHERPA-LTC2,2022-107BG,2026-06-08T00:08:08.388096,14.69596212,.0394871,53.2350,259.1965,200.3073,158.1814,0,U,53754,999,20119,.3866E-3,.7675E-4,0
CENTISPACE-1 S3,2022-108A,2026-06-08T02:39:00.918720,14.61241504,.0008799,53.5326,92.7914,329.2907,30.7553,0,U,53757,999,20020,.1453E-3,.533E-5,0
CENTISPACE-1 S4,2022-108B,2026-06-08T02:22:28.365024,14.61919504,.0008073,53.5302,90.3999,316.4226,43.6111,0,U,53758,999,20023,.17727E-3,.704E-5,0
